STARLINK-36224          
1 67203U 25304M   26014.91667824 -.00012179  00000+0 -27492-3 0  9996
2 67203  70.0008 314.9274 0003359 271.9578 236.4456 15.42735849  5793
STARLINK-36185          
1 67204U 25304N   26014.91667824 -.00013546  00000+0 -30623-3 0  9996
2 67204  70.0007 314.8761 0003093 265.9732 287.4383 15.42736207  5797
STARLINK-36197          
1 67205U 25304P   26014.91667824 -.00000498  00000+0 -79747-5 0  9991
2 67205  70.0003 314.8245 0003889 258.4134 339.9389 15.42757053  5765
STARLINK-36056          
1 67206U 25304Q   26014.91667824 -.00567548  00000+0 -13757-1 0  9991
2 67206  70.0005 314.7726 0002665 270.0258  13.2412 15.43091366  5767
STARLINK-36225          
1 67207U 25304R   26014.28008191 -.00156470  00000+0 -26193-2 0  9995
2 67207  70.0004 316.4781 0002921 294.7758  65.3125 15.52217682  5614
STARLINK-36265          
1 67208U 25304S   26014.96902283  .00036434  00000+0  83012-3 0  9995
2 67208  70.0002 314.8761 0003332 263.6145  96.4658 15.42759361  5716
STARLINK-36226          
1 67209U 25304T   26014.96091935  .00027978  00000+0  63930-3 0  9999
2 67209  70.0006 314.8469 0003444 267.9487  92.1300 15.42742132  5711
STARLINK-36173          
1 67210U 25304U   26014.91667824 -.00012129  00000+0 -27386-3 0  9991
2 67210  70.0009 314.9130 0002856 268.5083 251.9070 15.42730041  5790
STARLINK-36280          
1 67211U 25304V   26014.91667824  .00005287  00000+0  12388-3 0  9993
2 67211  70.0007 314.8873 0002997 266.6049 275.8025 15.42747386  5794
STARLINK-36213          
1 67212U 25304W   26014.91667824 -.00010095  00000+0 -22723-3 0  9993
2 67212  70.0005 314.8616 0003174 267.9663 296.4503 15.42737399  5795
STARLINK-36199          
1 67213U 25304X   26014.91667824 -.00015733  00000+0 -35627-3 0  9995
2 67213  70.0003 314.8112 0003481 268.6031 340.8080 15.42737521  5794
STARLINK-36203          
1 67214U 25304Y   26014.91667824  .00004172  00000+0  98595-4 0  9993
2 67214  70.0007 314.7855 0002946 278.3880 353.9335 15.42711577  5798
