CCSDS_OMM_VERS = 2.0
CREATION_DATE  = 
ORIGINATOR     = 

OBJECT_NAME    = STARLINK-36224
OBJECT_ID      = 2025-304M
CENTER_NAME    = EARTH
REF_FRAME      = TEME
TIME_SYSTEM    = UTC
MEAN_ELEMENT_THEORY = SGP/SGP4

EPOCH          = 2026-01-14T22:00:00.999936
MEAN_MOTION    = 15.42735849
ECCENTRICITY   = .0003359
INCLINATION    = 70.0008
RA_OF_ASC_NODE = 314.9274
ARG_OF_PERICENTER = 271.9578
MEAN_ANOMALY   = 236.4456

EPHEMERIS_TYPE = 0
CLASSIFICATION_TYPE = U
NORAD_CAT_ID   = 67203
ELEMENT_SET_NO = 999
REV_AT_EPOCH   = 579
BSTAR          = -.27492218E-3
MEAN_MOTION_DOT = -.12179E-3
MEAN_MOTION_DDOT = 0

CCSDS_OMM_VERS = 2.0
CREATION_DATE  = 
ORIGINATOR     = 

OBJECT_NAME    = STARLINK-36185
OBJECT_ID      = 2025-304N
CENTER_NAME    = EARTH
REF_FRAME      = TEME
TIME_SYSTEM    = UTC
MEAN_ELEMENT_THEORY = SGP/SGP4

EPOCH          = 2026-01-14T22:00:00.999936
MEAN_MOTION    = 15.42736207
ECCENTRICITY   = .00030931
INCLINATION    = 70.0007
RA_OF_ASC_NODE = 314.8761
ARG_OF_PERICENTER = 265.9732
MEAN_ANOMALY   = 287.4383

EPHEMERIS_TYPE = 0
CLASSIFICATION_TYPE = U
NORAD_CAT_ID   = 67204
ELEMENT_SET_NO = 999
REV_AT_EPOCH   = 579
BSTAR          = -.30623475E-3
MEAN_MOTION_DOT = -.13546E-3
MEAN_MOTION_DDOT = 0

CCSDS_OMM_VERS = 2.0
CREATION_DATE  = 
ORIGINATOR     = 

OBJECT_NAME    = STARLINK-36197
OBJECT_ID      = 2025-304P
CENTER_NAME    = EARTH
REF_FRAME      = TEME
TIME_SYSTEM    = UTC
MEAN_ELEMENT_THEORY = SGP/SGP4

EPOCH          = 2026-01-14T22:00:00.999936
MEAN_MOTION    = 15.42757053
ECCENTRICITY   = .00038898
INCLINATION    = 70.0003
RA_OF_ASC_NODE = 314.8245
ARG_OF_PERICENTER = 258.4134
MEAN_ANOMALY   = 339.9389

EPHEMERIS_TYPE = 0
CLASSIFICATION_TYPE = U
NORAD_CAT_ID   = 67205
ELEMENT_SET_NO = 999
REV_AT_EPOCH   = 576
BSTAR          = -.7974722E-5
MEAN_MOTION_DOT = -.498E-5
MEAN_MOTION_DDOT = 0

CCSDS_OMM_VERS = 2.0
CREATION_DATE  = 
ORIGINATOR     = 

OBJECT_NAME    = STARLINK-36056
OBJECT_ID      = 2025-304Q
CENTER_NAME    = EARTH
REF_FRAME      = TEME
TIME_SYSTEM    = UTC
MEAN_ELEMENT_THEORY = SGP/SGP4

EPOCH          = 2026-01-14T22:00:00.999936
MEAN_MOTION    = 15.43091366
ECCENTRICITY   = .00026654
INCLINATION    = 70.0005
RA_OF_ASC_NODE = 314.7726
ARG_OF_PERICENTER = 270.0258
MEAN_ANOMALY   = 13.2412

EPHEMERIS_TYPE = 0
CLASSIFICATION_TYPE = U
NORAD_CAT_ID   = 67206
ELEMENT_SET_NO = 999
REV_AT_EPOCH   = 576
BSTAR          = -.13756929E-1
MEAN_MOTION_DOT = -.567548E-2
MEAN_MOTION_DDOT = 0

CCSDS_OMM_VERS = 2.0
CREATION_DATE  = 
ORIGINATOR     = 

OBJECT_NAME    = STARLINK-36225
OBJECT_ID      = 2025-304R
CENTER_NAME    = EARTH
REF_FRAME      = TEME
TIME_SYSTEM    = UTC
MEAN_ELEMENT_THEORY = SGP/SGP4

EPOCH          = 2026-01-14T06:43:19.077024
MEAN_MOTION    = 15.52217682
ECCENTRICITY   = .00029218
INCLINATION    = 70.0004
RA_OF_ASC_NODE = 316.4781
ARG_OF_PERICENTER = 294.7758
MEAN_ANOMALY   = 65.3125

EPHEMERIS_TYPE = 0
CLASSIFICATION_TYPE = U
NORAD_CAT_ID   = 67207
ELEMENT_SET_NO = 999
REV_AT_EPOCH   = 561
BSTAR          = -.26192985E-2
MEAN_MOTION_DOT = -.15647E-2
MEAN_MOTION_DDOT = 0

CCSDS_OMM_VERS = 2.0
CREATION_DATE  = 
ORIGINATOR     = 

OBJECT_NAME    = STARLINK-36265
OBJECT_ID      = 2025-304S
CENTER_NAME    = EARTH
REF_FRAME      = TEME
TIME_SYSTEM    = UTC
MEAN_ELEMENT_THEORY = SGP/SGP4

EPOCH          = 2026-01-14T23:15:23.572512
MEAN_MOTION    = 15.42759361
ECCENTRICITY   = .00033327
INCLINATION    = 70.0002
RA_OF_ASC_NODE = 314.8761
ARG_OF_PERICENTER = 263.6145
MEAN_ANOMALY   = 96.4658

EPHEMERIS_TYPE = 0
CLASSIFICATION_TYPE = U
NORAD_CAT_ID   = 67208
ELEMENT_SET_NO = 999
REV_AT_EPOCH   = 571
BSTAR          = .83012197E-3
MEAN_MOTION_DOT = .36434E-3
MEAN_MOTION_DDOT = 0

CCSDS_OMM_VERS = 2.0
CREATION_DATE  = 
ORIGINATOR     = 

OBJECT_NAME    = STARLINK-36226
OBJECT_ID      = 2025-304T
CENTER_NAME    = EARTH
REF_FRAME      = TEME
TIME_SYSTEM    = UTC
MEAN_ELEMENT_THEORY = SGP/SGP4

EPOCH          = 2026-01-14T23:03:43.431840
MEAN_MOTION    = 15.42742132
ECCENTRICITY   = .00034446
INCLINATION    = 70.0006
RA_OF_ASC_NODE = 314.8469
ARG_OF_PERICENTER = 267.9487
MEAN_ANOMALY   = 92.1300

EPHEMERIS_TYPE = 0
CLASSIFICATION_TYPE = U
NORAD_CAT_ID   = 67209
ELEMENT_SET_NO = 999
REV_AT_EPOCH   = 571
BSTAR          = .63929911E-3
MEAN_MOTION_DOT = .27978E-3
MEAN_MOTION_DDOT = 0

CCSDS_OMM_VERS = 2.0
CREATION_DATE  = 
ORIGINATOR     = 

OBJECT_NAME    = STARLINK-36173
OBJECT_ID      = 2025-304U
CENTER_NAME    = EARTH
REF_FRAME      = TEME
TIME_SYSTEM    = UTC
MEAN_ELEMENT_THEORY = SGP/SGP4

EPOCH          = 2026-01-14T22:00:00.999936
MEAN_MOTION    = 15.42730041
ECCENTRICITY   = .00028567
INCLINATION    = 70.0009
RA_OF_ASC_NODE = 314.9130
ARG_OF_PERICENTER = 268.5083
MEAN_ANOMALY   = 251.9070

EPHEMERIS_TYPE = 0
CLASSIFICATION_TYPE = U
NORAD_CAT_ID   = 67210
ELEMENT_SET_NO = 999
REV_AT_EPOCH   = 579
BSTAR          = -.27385708E-3
MEAN_MOTION_DOT = -.12129E-3
MEAN_MOTION_DDOT = 0

CCSDS_OMM_VERS = 2.0
CREATION_DATE  = 
ORIGINATOR     = 

OBJECT_NAME    = STARLINK-36280
OBJECT_ID      = 2025-304V
CENTER_NAME    = EARTH
REF_FRAME      = TEME
TIME_SYSTEM    = UTC
MEAN_ELEMENT_THEORY = SGP/SGP4

EPOCH          = 2026-01-14T22:00:00.999936
MEAN_MOTION    = 15.42747386
ECCENTRICITY   = .00029975
INCLINATION    = 70.0007
RA_OF_ASC_NODE = 314.8873
ARG_OF_PERICENTER = 266.6049
MEAN_ANOMALY   = 275.8025

EPHEMERIS_TYPE = 0
CLASSIFICATION_TYPE = U
NORAD_CAT_ID   = 67211
ELEMENT_SET_NO = 999
REV_AT_EPOCH   = 579
BSTAR          = .1238824E-3
MEAN_MOTION_DOT = .5287E-4
MEAN_MOTION_DDOT = 0

CCSDS_OMM_VERS = 2.0
CREATION_DATE  = 
ORIGINATOR     = 

OBJECT_NAME    = STARLINK-36213
OBJECT_ID      = 2025-304W
CENTER_NAME    = EARTH
REF_FRAME      = TEME
TIME_SYSTEM    = UTC
MEAN_ELEMENT_THEORY = SGP/SGP4

EPOCH          = 2026-01-14T22:00:00.999936
MEAN_MOTION    = 15.42737399
ECCENTRICITY   = .00031743
INCLINATION    = 70.0005
RA_OF_ASC_NODE = 314.8616
ARG_OF_PERICENTER = 267.9663
MEAN_ANOMALY   = 296.4503

EPHEMERIS_TYPE = 0
CLASSIFICATION_TYPE = U
NORAD_CAT_ID   = 67212
ELEMENT_SET_NO = 999
REV_AT_EPOCH   = 579
BSTAR          = -.22722569E-3
MEAN_MOTION_DOT = -.10095E-3
MEAN_MOTION_DDOT = 0

CCSDS_OMM_VERS = 2.0
CREATION_DATE  = 
ORIGINATOR     = 

OBJECT_NAME    = STARLINK-36199
OBJECT_ID      = 2025-304X
CENTER_NAME    = EARTH
REF_FRAME      = TEME
TIME_SYSTEM    = UTC
MEAN_ELEMENT_THEORY = SGP/SGP4

EPOCH          = 2026-01-14T22:00:00.999936
MEAN_MOTION    = 15.42737521
ECCENTRICITY   = .00034817
INCLINATION    = 70.0003
RA_OF_ASC_NODE = 314.8112
ARG_OF_PERICENTER = 268.6031
MEAN_ANOMALY   = 340.8080

EPHEMERIS_TYPE = 0
CLASSIFICATION_TYPE = U
NORAD_CAT_ID   = 67213
ELEMENT_SET_NO = 999
REV_AT_EPOCH   = 579
BSTAR          = -.35626749E-3
MEAN_MOTION_DOT = -.15733E-3
MEAN_MOTION_DDOT = 0

CCSDS_OMM_VERS = 2.0
CREATION_DATE  = 
ORIGINATOR     = 

OBJECT_NAME    = STARLINK-36203
OBJECT_ID      = 2025-304Y
CENTER_NAME    = EARTH
REF_FRAME      = TEME
TIME_SYSTEM    = UTC
MEAN_ELEMENT_THEORY = SGP/SGP4

EPOCH          = 2026-01-14T22:00:00.999936
MEAN_MOTION    = 15.42711577
ECCENTRICITY   = .00029463
INCLINATION    = 70.0007
RA_OF_ASC_NODE = 314.7855
ARG_OF_PERICENTER = 278.3880
MEAN_ANOMALY   = 353.9335

EPHEMERIS_TYPE = 0
CLASSIFICATION_TYPE = U
NORAD_CAT_ID   = 67214
ELEMENT_SET_NO = 999
REV_AT_EPOCH   = 579
BSTAR          = .98595036E-4
MEAN_MOTION_DOT = .4172E-4
MEAN_MOTION_DDOT = 0

